STARLINK-35297          
1 66010U 25232F   25318.25002315  .00070524  00000+0  17602-2 0  9999
2 66010  53.1592 281.4546 0001610  85.0313 229.4669 15.39560387  4962
STARLINK-35256          
1 66011U 25232G   25318.27683238  .00069274  00000+0  17262-2 0  9993
2 66011  53.1586 281.5293 0001909  80.6238 279.4983 15.39618442  5741
STARLINK-35293          
1 66012U 25232H   25318.25002315  .00060356  00000+0  15077-2 0  9997
2 66012  53.1587 281.6070 0000980 112.2105 124.9086 15.39604940  4969
STARLINK-35307          
1 66013U 25232J   25318.29542412  .00057272  00000+0  14316-2 0  9997
2 66013  53.1611 281.6485 0001202 102.4180 257.6960 15.39608858  5744
STARLINK-35395          
1 66014U 25232K   25318.28613242  .00067186  00000+0  16766-2 0  9993
2 66014  53.1589 281.5892 0001263  81.8565 278.2583 15.39588695  5740
STARLINK-34622          
1 66015U 25232L   25318.11843145  .00163478  00000+0  28914-2 0  9992
2 66015  53.1586 281.9607 0000589  31.1012 329.0032 15.49258376  5713
STARLINK-35243          
1 66016U 25232M   25318.18360156  .00086373  00000+0  16430-2 0  9994
2 66016  53.1596 281.6567 0008732 355.6914   4.4018 15.47491201  5734
STARLINK-35398          
1 66017U 25232N   25318.29574236  .00044374  00000+0  11130-2 0  9990
2 66017  53.1606 281.6486 0001546  84.6442 275.4739 15.39615718  5741
STARLINK-35376          
1 66018U 25232P   25318.25002315  .00061558  00000+0  15375-2 0  9999
2 66018  53.1585 281.5041 0001682  84.3076 204.3126 15.39601089  4965
STARLINK-35382          
1 66019U 25232Q   25318.25002315 -.00709244  00000+0 -18880-1 0  9996
2 66019  53.1594 281.4015 0001707  94.5279 245.4974 15.40068049  4964
STARLINK-35430          
1 66020U 25232R   25318.28644938  .00059315  00000+0  14785-2 0  9990
2 66020  53.1594 281.5896 0001877  55.2145 304.9036 15.39677592  5720
STARLINK-35432          
1 66021U 25232S   25318.29109678  .00059976  00000+0  14976-2 0  9994
2 66021  53.1601 281.6197 0001833  90.6021 269.5194 15.39620353  5749
