CCSDS_OMM_VERS = 2.0
CREATION_DATE  = 
ORIGINATOR     = 

OBJECT_NAME    = STARLINK-35297
OBJECT_ID      = 2025-232F
CENTER_NAME    = EARTH
REF_FRAME      = TEME
TIME_SYSTEM    = UTC
MEAN_ELEMENT_THEORY = SGP/SGP4

EPOCH          = 2025-11-14T06:00:02.000160
MEAN_MOTION    = 15.39560387
ECCENTRICITY   = .00016106
INCLINATION    = 53.1592
RA_OF_ASC_NODE = 281.4546
ARG_OF_PERICENTER = 85.0313
MEAN_ANOMALY   = 229.4669

EPHEMERIS_TYPE = 0
CLASSIFICATION_TYPE = U
NORAD_CAT_ID   = 66010
ELEMENT_SET_NO = 999
REV_AT_EPOCH   = 496
BSTAR          = .17602331E-2
MEAN_MOTION_DOT = .70524E-3
MEAN_MOTION_DDOT = 0

CCSDS_OMM_VERS = 2.0
CREATION_DATE  = 
ORIGINATOR     = 

OBJECT_NAME    = STARLINK-35256
OBJECT_ID      = 2025-232G
CENTER_NAME    = EARTH
REF_FRAME      = TEME
TIME_SYSTEM    = UTC
MEAN_ELEMENT_THEORY = SGP/SGP4

EPOCH          = 2025-11-14T06:38:38.317632
MEAN_MOTION    = 15.39618442
ECCENTRICITY   = .00019091
INCLINATION    = 53.1586
RA_OF_ASC_NODE = 281.5293
ARG_OF_PERICENTER = 80.6238
MEAN_ANOMALY   = 279.4983

EPHEMERIS_TYPE = 0
CLASSIFICATION_TYPE = U
NORAD_CAT_ID   = 66011
ELEMENT_SET_NO = 999
REV_AT_EPOCH   = 574
BSTAR          = .17261805E-2
MEAN_MOTION_DOT = .69274E-3
MEAN_MOTION_DDOT = 0

CCSDS_OMM_VERS = 2.0
CREATION_DATE  = 
ORIGINATOR     = 

OBJECT_NAME    = STARLINK-35293
OBJECT_ID      = 2025-232H
CENTER_NAME    = EARTH
REF_FRAME      = TEME
TIME_SYSTEM    = UTC
MEAN_ELEMENT_THEORY = SGP/SGP4

EPOCH          = 2025-11-14T06:00:02.000160
MEAN_MOTION    = 15.39604940
ECCENTRICITY   = .00009804
INCLINATION    = 53.1587
RA_OF_ASC_NODE = 281.6070
ARG_OF_PERICENTER = 112.2105
MEAN_ANOMALY   = 124.9086

EPHEMERIS_TYPE = 0
CLASSIFICATION_TYPE = U
NORAD_CAT_ID   = 66012
ELEMENT_SET_NO = 999
REV_AT_EPOCH   = 496
BSTAR          = .15076977E-2
MEAN_MOTION_DOT = .60356E-3
MEAN_MOTION_DDOT = 0

CCSDS_OMM_VERS = 2.0
CREATION_DATE  = 
ORIGINATOR     = 

OBJECT_NAME    = STARLINK-35307
OBJECT_ID      = 2025-232J
CENTER_NAME    = EARTH
REF_FRAME      = TEME
TIME_SYSTEM    = UTC
MEAN_ELEMENT_THEORY = SGP/SGP4

EPOCH          = 2025-11-14T07:05:24.643968
MEAN_MOTION    = 15.39608858
ECCENTRICITY   = .00012028
INCLINATION    = 53.1611
RA_OF_ASC_NODE = 281.6485
ARG_OF_PERICENTER = 102.4180
MEAN_ANOMALY   = 257.6960

EPHEMERIS_TYPE = 0
CLASSIFICATION_TYPE = U
NORAD_CAT_ID   = 66013
ELEMENT_SET_NO = 999
REV_AT_EPOCH   = 574
BSTAR          = .14315797E-2
MEAN_MOTION_DOT = .57272E-3
MEAN_MOTION_DDOT = 0

CCSDS_OMM_VERS = 2.0
CREATION_DATE  = 
ORIGINATOR     = 

OBJECT_NAME    = STARLINK-35395
OBJECT_ID      = 2025-232K
CENTER_NAME    = EARTH
REF_FRAME      = TEME
TIME_SYSTEM    = UTC
MEAN_ELEMENT_THEORY = SGP/SGP4

EPOCH          = 2025-11-14T06:52:01.841088
MEAN_MOTION    = 15.39588695
ECCENTRICITY   = .0001263
INCLINATION    = 53.1589
RA_OF_ASC_NODE = 281.5892
ARG_OF_PERICENTER = 81.8565
MEAN_ANOMALY   = 278.2583

EPHEMERIS_TYPE = 0
CLASSIFICATION_TYPE = U
NORAD_CAT_ID   = 66014
ELEMENT_SET_NO = 999
REV_AT_EPOCH   = 574
BSTAR          = .16765775E-2
MEAN_MOTION_DOT = .67186E-3
MEAN_MOTION_DDOT = 0

CCSDS_OMM_VERS = 2.0
CREATION_DATE  = 
ORIGINATOR     = 

OBJECT_NAME    = STARLINK-34622
OBJECT_ID      = 2025-232L
CENTER_NAME    = EARTH
REF_FRAME      = TEME
TIME_SYSTEM    = UTC
MEAN_ELEMENT_THEORY = SGP/SGP4

EPOCH          = 2025-11-14T02:50:32.477280
MEAN_MOTION    = 15.49258376
ECCENTRICITY   = .00005891
INCLINATION    = 53.1586
RA_OF_ASC_NODE = 281.9607
ARG_OF_PERICENTER = 31.1012
MEAN_ANOMALY   = 329.0032

EPHEMERIS_TYPE = 0
CLASSIFICATION_TYPE = U
NORAD_CAT_ID   = 66015
ELEMENT_SET_NO = 999
REV_AT_EPOCH   = 571
BSTAR          = .28914055E-2
MEAN_MOTION_DOT = .163478E-2
MEAN_MOTION_DDOT = 0

CCSDS_OMM_VERS = 2.0
CREATION_DATE  = 
ORIGINATOR     = 

OBJECT_NAME    = STARLINK-35243
OBJECT_ID      = 2025-232M
CENTER_NAME    = EARTH
REF_FRAME      = TEME
TIME_SYSTEM    = UTC
MEAN_ELEMENT_THEORY = SGP/SGP4

EPOCH          = 2025-11-14T04:24:23.174784
MEAN_MOTION    = 15.47491201
ECCENTRICITY   = .00087328
INCLINATION    = 53.1596
RA_OF_ASC_NODE = 281.6567
ARG_OF_PERICENTER = 355.6914
MEAN_ANOMALY   = 4.4018

EPHEMERIS_TYPE = 0
CLASSIFICATION_TYPE = U
NORAD_CAT_ID   = 66016
ELEMENT_SET_NO = 999
REV_AT_EPOCH   = 573
BSTAR          = .16429639E-2
MEAN_MOTION_DOT = .86373E-3
MEAN_MOTION_DDOT = 0

CCSDS_OMM_VERS = 2.0
CREATION_DATE  = 
ORIGINATOR     = 

OBJECT_NAME    = STARLINK-35398
OBJECT_ID      = 2025-232N
CENTER_NAME    = EARTH
REF_FRAME      = TEME
TIME_SYSTEM    = UTC
MEAN_ELEMENT_THEORY = SGP/SGP4

EPOCH          = 2025-11-14T07:05:52.139904
MEAN_MOTION    = 15.39615718
ECCENTRICITY   = .00015463
INCLINATION    = 53.1606
RA_OF_ASC_NODE = 281.6486
ARG_OF_PERICENTER = 84.6442
MEAN_ANOMALY   = 275.4739

EPHEMERIS_TYPE = 0
CLASSIFICATION_TYPE = U
NORAD_CAT_ID   = 66017
ELEMENT_SET_NO = 999
REV_AT_EPOCH   = 574
BSTAR          = .11130408E-2
MEAN_MOTION_DOT = .44374E-3
MEAN_MOTION_DDOT = 0

CCSDS_OMM_VERS = 2.0
CREATION_DATE  = 
ORIGINATOR     = 

OBJECT_NAME    = STARLINK-35376
OBJECT_ID      = 2025-232P
CENTER_NAME    = EARTH
REF_FRAME      = TEME
TIME_SYSTEM    = UTC
MEAN_ELEMENT_THEORY = SGP/SGP4

EPOCH          = 2025-11-14T06:00:02.000160
MEAN_MOTION    = 15.39601089
ECCENTRICITY   = .00016821
INCLINATION    = 53.1585
RA_OF_ASC_NODE = 281.5041
ARG_OF_PERICENTER = 84.3076
MEAN_ANOMALY   = 204.3126

EPHEMERIS_TYPE = 0
CLASSIFICATION_TYPE = U
NORAD_CAT_ID   = 66018
ELEMENT_SET_NO = 999
REV_AT_EPOCH   = 496
BSTAR          = .15374638E-2
MEAN_MOTION_DOT = .61558E-3
MEAN_MOTION_DDOT = 0

CCSDS_OMM_VERS = 2.0
CREATION_DATE  = 
ORIGINATOR     = 

OBJECT_NAME    = STARLINK-35382
OBJECT_ID      = 2025-232Q
CENTER_NAME    = EARTH
REF_FRAME      = TEME
TIME_SYSTEM    = UTC
MEAN_ELEMENT_THEORY = SGP/SGP4

EPOCH          = 2025-11-14T06:00:02.000160
MEAN_MOTION    = 15.40068049
ECCENTRICITY   = .00017076
INCLINATION    = 53.1594
RA_OF_ASC_NODE = 281.4015
ARG_OF_PERICENTER = 94.5279
MEAN_ANOMALY   = 245.4974

EPHEMERIS_TYPE = 0
CLASSIFICATION_TYPE = U
NORAD_CAT_ID   = 66019
ELEMENT_SET_NO = 999
REV_AT_EPOCH   = 496
BSTAR          = -.18879788E-1
MEAN_MOTION_DOT = -.709244E-2
MEAN_MOTION_DDOT = 0

CCSDS_OMM_VERS = 2.0
CREATION_DATE  = 
ORIGINATOR     = 

OBJECT_NAME    = STARLINK-35430
OBJECT_ID      = 2025-232R
CENTER_NAME    = EARTH
REF_FRAME      = TEME
TIME_SYSTEM    = UTC
MEAN_ELEMENT_THEORY = SGP/SGP4

EPOCH          = 2025-11-14T06:52:29.226432
MEAN_MOTION    = 15.39677592
ECCENTRICITY   = .00018773
INCLINATION    = 53.1594
RA_OF_ASC_NODE = 281.5896
ARG_OF_PERICENTER = 55.2145
MEAN_ANOMALY   = 304.9036

EPHEMERIS_TYPE = 0
CLASSIFICATION_TYPE = U
NORAD_CAT_ID   = 66020
ELEMENT_SET_NO = 999
REV_AT_EPOCH   = 572
BSTAR          = .14785151E-2
MEAN_MOTION_DOT = .59315E-3
MEAN_MOTION_DDOT = 0

CCSDS_OMM_VERS = 2.0
CREATION_DATE  = 
ORIGINATOR     = 

OBJECT_NAME    = STARLINK-35432
OBJECT_ID      = 2025-232S
CENTER_NAME    = EARTH
REF_FRAME      = TEME
TIME_SYSTEM    = UTC
MEAN_ELEMENT_THEORY = SGP/SGP4

EPOCH          = 2025-11-14T06:59:10.761792
MEAN_MOTION    = 15.39620353
ECCENTRICITY   = .00018337
INCLINATION    = 53.1601
RA_OF_ASC_NODE = 281.6197
ARG_OF_PERICENTER = 90.6021
MEAN_ANOMALY   = 269.5194

EPHEMERIS_TYPE = 0
CLASSIFICATION_TYPE = U
NORAD_CAT_ID   = 66021
ELEMENT_SET_NO = 999
REV_AT_EPOCH   = 574
BSTAR          = .14975786E-2
MEAN_MOTION_DOT = .59976E-3
MEAN_MOTION_DDOT = 0

